OBJECT_NAME,OBJECT_ID,EPOCH,MEAN_MOTION,ECCENTRICITY,INCLINATION,RA_OF_ASC_NODE,ARG_OF_PERICENTER,MEAN_ANOMALY,EPHEMERIS_TYPE,CLASSIFICATION_TYPE,NORAD_CAT_ID,ELEMENT_SET_NO,REV_AT_EPOCH,BSTAR,MEAN_MOTION_DOT,MEAN_MOTION_DDOT
STARLINK-37898,2026-147B,2026-07-23T06:00:02.000160,15.59061033,.00014679,97.2851,241.0400,72.8388,9.9189,0,U,69705,999,503,-.35969468E-1,-.2445566E-1,0
STARLINK-37970,2026-147C,2026-07-23T06:00:02.000160,15.58672252,.00014149,97.2847,241.0382,65.4405,12.2906,0,U,69706,999,503,-.35690571E-1,-.2397804E-1,0
STARLINK-37975,2026-147D,2026-07-23T06:00:02.000160,15.63922138,.00017696,97.2844,241.0672,80.1655,73.9222,0,U,69707,999,503,-.31287588E-1,-.2553617E-1,0
STARLINK-37972,2026-147E,2026-07-23T06:00:02.000160,15.75681349,.00015336,97.2843,241.1055,90.5545,151.8585,0,U,69708,999,503,-.18953852E-1,-.2474999E-1,0
STARLINK-37963,2026-147F,2026-07-23T06:00:02.000160,15.63742168,.00019247,97.2841,241.0547,71.5667,53.6312,0,U,69709,999,503,-.30504242E-1,-.248271E-1,0
STARLINK-37969,2026-147G,2026-07-23T06:00:02.000160,15.60589958,.00012227,97.2851,241.0564,80.3749,44.9566,0,U,69710,999,518,-.12634462E-1,-.944692E-2,0
STARLINK-37956,2026-147H,2026-07-23T06:00:02.000160,15.57850215,.00015628,97.2846,241.0434,66.9105,22.0840,0,U,69711,999,503,-.37198674E-1,-.2419494E-1,0
STARLINK-38043,2026-147J,2026-07-23T06:00:02.000160,15.74126856,.00015316,97.2843,241.1091,83.0551,170.6210,0,U,69712,999,503,-.16653313E-1,-.2086886E-1,0
STARLINK-38020,2026-147K,2026-07-23T06:00:02.000160,15.59387406,.00016151,97.2848,241.0516,71.6686,37.9861,0,U,69713,999,503,-.35199634E-1,-.2426218E-1,0
STARLINK-38059,2026-147L,2026-07-23T06:00:02.000160,15.58201411,.00016367,97.2845,241.0468,74.8252,22.4252,0,U,69714,999,503,-.3630365E-1,-.2396274E-1,0
STARLINK-38061,2026-147M,2026-07-23T06:00:02.000160,15.62409278,.00018439,97.2845,241.0734,84.3558,85.5217,0,U,69715,999,512,-.3282265E-1,-.2527782E-1,0
STARLINK-38060,2026-147N,2026-07-23T06:00:02.000160,15.70239881,.0001593,97.2845,241.1096,87.8359,164.4182,0,U,69716,999,512,-.16886899E-1,-.1790821E-1,0
STARLINK-38040,2026-147P,2026-07-23T06:00:02.000160,15.61222158,.00017908,97.2844,241.0733,82.4449,87.5082,0,U,69717,999,512,-.36257109E-1,-.2646447E-1,0
STARLINK-37989,2026-147Q,2026-07-23T06:00:02.000160,15.62340200,.00016446,97.2846,241.0638,76.4735,70.9115,0,U,69718,999,512,-.32986026E-1,-.2532526E-1,0
STARLINK-38039,2026-147R,2026-07-22T08:59:32.360640,15.80148779,.0008167,97.2826,240.2030,193.4098,166.6954,0,U,69719,999,499,.19627554E-2,.381546E-2,0
STARLINK-38003,2026-147S,2026-07-23T06:00:02.000160,15.71116211,.0001846,97.2846,241.1184,98.1978,175.2989,0,U,69720,999,512,-.22345191E-1,-.2407624E-1,0
STARLINK-38014,2026-147T,2026-07-23T06:00:02.000160,15.69652505,.00014437,97.2843,241.1156,90.7411,176.9802,0,U,69721,999,512,-.24780571E-1,-.2552953E-1,0
STARLINK-37915,2026-147U,2026-07-23T06:00:02.000160,15.71703112,.00014662,97.2843,241.1217,90.1444,193.0500,0,U,69722,999,512,-.22008832E-1,-.2427151E-1,0
STARLINK-38007,2026-147V,2026-07-23T06:00:02.000160,15.71282964,.00014484,97.2845,241.1149,80.8828,187.8795,0,U,69723,999,512,-.22850827E-1,-.2525024E-1,0
STARLINK-38008,2026-147W,2026-07-23T06:00:02.000160,15.70412015,.00018324,97.2847,241.1250,71.3329,217.0885,0,U,69724,999,512,-.8794196E-2,-.972078E-2,0
STARLINK-38021,2026-147X,2026-07-23T06:00:02.000160,15.68632246,.00014472,97.2841,241.1172,86.6013,184.9644,0,U,69725,999,512,-.25685937E-1,-.2538685E-1,0
STARLINK-38015,2026-147Y,2026-07-23T02:02:38.468544,15.75239287,.00011887,97.2857,240.9203,92.6262,267.5139,0,U,69726,999,510,.13461455E-2,.206013E-2,0
STARLINK-38010,2026-147Z,2026-07-23T01:15:52.491168,15.75290668,.00015568,97.2838,240.8109,119.0575,241.0846,0,U,69727,999,509,.15466497E-2,.238147E-2,0
SXM-11,2026-148A,2026-07-23T06:14:38.534208,1.00271756,.00016658,0.0906,264.8967,213.7576,155.4712,0,U,69728,999,40,0,.15E-6,0
HAIYANG-2E,2026-149A,2026-07-23T06:48:03.995712,13.79299031,.00015379,99.3444,211.0985,82.3034,277.8292,0,U,69737,999,293,.8266476E-5,-.36E-6,0
CZ-4B R/B,2026-149B,2026-07-23T00:39:38.508192,14.30069832,.01978245,99.3220,212.6061,307.4790,50.8543,0,U,69738,999,325,.54029817E-4,.114E-5,0
STARLINK-38033,2026-150A,2026-07-23T01:27:09.603648,15.80839736,.00021856,97.2842,42.8773,78.9519,281.1995,0,U,69739,999,456,.15347329E-2,.304669E-2,0
STARLINK-38076,2026-150B,2026-07-23T02:34:32.922336,15.75196356,.00012559,97.2843,42.8113,96.1296,264.0112,0,U,69740,999,456,.13756777E-2,.21025E-2,0
STARLINK-38074,2026-150C,2026-07-23T04:51:46.413792,15.75214472,.00018047,97.2845,42.9903,96.4315,263.7156,0,U,69741,999,458,.13247972E-2,.202444E-2,0
STARLINK-38041,2026-150D,2026-07-23T02:02:32.617536,15.75199260,.00028975,97.2845,42.8428,71.1039,289.0540,0,U,69742,999,456,.13779866E-2,.21066E-2,0
