STARLINK-37898          
1 69705U 26147B   26204.25002315 -.02445566  00000+0 -35969-1 0  9995
2 69705  97.2851 241.0400 0001467  72.8388   9.9189 15.59061033  5033
STARLINK-37970          
1 69706U 26147C   26204.25002315 -.02397804  00000+0 -35691-1 0  9999
2 69706  97.2847 241.0382 0001414  65.4405  12.2906 15.58672252  5032
STARLINK-37975          
1 69707U 26147D   26204.25002315 -.02553617  00000+0 -31288-1 0  9994
2 69707  97.2844 241.0672 0001769  80.1655  73.9222 15.63922138  5038
STARLINK-37972          
1 69708U 26147E   26204.25002315 -.02474999  00000+0 -18954-1 0  9995
2 69708  97.2843 241.1055 0001533  90.5545 151.8585 15.75681349  5033
STARLINK-37963          
1 69709U 26147F   26204.25002315 -.02482710  00000+0 -30504-1 0  9991
2 69709  97.2841 241.0547 0001924  71.5667  53.6312 15.63742168  5036
STARLINK-37969          
1 69710U 26147G   26204.25002315 -.00944692  00000+0 -12634-1 0  9997
2 69710  97.2851 241.0564 0001222  80.3749  44.9566 15.60589958  5181
STARLINK-37956          
1 69711U 26147H   26204.25002315 -.02419494  00000+0 -37199-1 0  9990
2 69711  97.2846 241.0434 0001562  66.9105  22.0840 15.57850215  5034
STARLINK-38043          
1 69712U 26147J   26204.25002315 -.02086886  00000+0 -16653-1 0  9998
2 69712  97.2843 241.1091 0001531  83.0551 170.6210 15.74126856  5030
STARLINK-38020          
1 69713U 26147K   26204.25002315 -.02426218  00000+0 -35200-1 0  9995
2 69713  97.2848 241.0516 0001615  71.6686  37.9861 15.59387406  5032
STARLINK-38059          
1 69714U 26147L   26204.25002315 -.02396274  00000+0 -36304-1 0  9990
2 69714  97.2845 241.0468 0001636  74.8252  22.4252 15.58201411  5036
STARLINK-38061          
1 69715U 26147M   26204.25002315 -.02527782  00000+0 -32823-1 0  9993
2 69715  97.2845 241.0734 0001843  84.3558  85.5217 15.62409278  5125
STARLINK-38060          
1 69716U 26147N   26204.25002315 -.01790821  00000+0 -16887-1 0  9991
2 69716  97.2845 241.1096 0001593  87.8359 164.4182 15.70239881  5125
STARLINK-38040          
1 69717U 26147P   26204.25002315 -.02646447  00000+0 -36257-1 0  9990
2 69717  97.2844 241.0733 0001790  82.4449  87.5082 15.61222158  5125
STARLINK-37989          
1 69718U 26147Q   26204.25002315 -.02532526  00000+0 -32986-1 0  9998
2 69718  97.2846 241.0638 0001644  76.4735  70.9115 15.62340200  5124
STARLINK-38039          
1 69719U 26147R   26203.37468010  .00381546  00000+0  19628-2 0  9998
2 69719  97.2826 240.2030 0008167 193.4098 166.6954 15.80148779  4994
STARLINK-38003          
1 69720U 26147S   26204.25002315 -.02407624  00000+0 -22345-1 0  9999
2 69720  97.2846 241.1184 0001846  98.1978 175.2989 15.71116211  5129
STARLINK-38014          
1 69721U 26147T   26204.25002315 -.02552953  00000+0 -24781-1 0  9992
2 69721  97.2843 241.1156 0001443  90.7411 176.9802 15.69652505  5129
STARLINK-37915          
1 69722U 26147U   26204.25002315 -.02427151  00000+0 -22009-1 0  9995
2 69722  97.2843 241.1217 0001466  90.1444 193.0500 15.71703112  5122
STARLINK-38007          
1 69723U 26147V   26204.25002315 -.02525024  00000+0 -22851-1 0  9999
2 69723  97.2845 241.1149 0001448  80.8828 187.8795 15.71282964  5125
STARLINK-38008          
1 69724U 26147W   26204.25002315 -.00972078  00000+0 -87942-2 0  9996
2 69724  97.2847 241.1250 0001832  71.3329 217.0885 15.70412015  5126
STARLINK-38021          
1 69725U 26147X   26204.25002315 -.02538685  00000+0 -25686-1 0  9997
2 69725  97.2841 241.1172 0001447  86.6013 184.9644 15.68632246  5127
STARLINK-38015          
1 69726U 26147Y   26204.08516746  .00206013  00000+0  13461-2 0  9999
2 69726  97.2857 240.9203 0001188  92.6262 267.5139 15.75239287  5103
STARLINK-38010          
1 69727U 26147Z   26204.05269087  .00238147  00000+0  15466-2 0  9990
2 69727  97.2838 240.8109 0001556 119.0575 241.0846 15.75290668  5097
SXM-11                  
1 69728U 26148A   26204.26016822  .00000015  00000+0  00000+0 0  9998
2 69728   0.0906 264.8967 0001665 213.7576 155.4712  1.00271756   408
HAIYANG-2E              
1 69737U 26149A   26204.28337958 -.00000036  00000+0  82665-5 0  9994
2 69737  99.3444 211.0985 0001537  82.3034 277.8292 13.79299031  2934
CZ-4B R/B               
1 69738U 26149B   26204.02752903  .00000114  00000+0  54030-4 0  9998
2 69738  99.3220 212.6061 0197824 307.4790  50.8543 14.30069832  3250
STARLINK-38033          
1 69739U 26150A   26204.06052782  .00304669  00000+0  15347-2 0  9991
2 69739  97.2842  42.8773 0002185  78.9519 281.1995 15.80839736  4564
STARLINK-38076          
1 69740U 26150B   26204.10732549  .00210250  00000+0  13757-2 0  9999
2 69740  97.2843  42.8113 0001255  96.1296 264.0112 15.75196356  4565
STARLINK-38074          
1 69741U 26150C   26204.20262053  .00202444  00000+0  13248-2 0  9990
2 69741  97.2845  42.9903 0001804  96.4315 263.7156 15.75214472  4587
STARLINK-38041          
1 69742U 26150D   26204.08509974  .00210660  00000+0  13780-2 0  9993
2 69742  97.2845  42.8428 0002897  71.1039 289.0540 15.75199260  4568
